[{"OBJECT_NAME":"PERSEUS-M1","OBJECT_ID":"2014-033AF","EPOCH":"2026-03-09T17:46:59.181600","MEAN_MOTION":14.95254642,"ECCENTRICITY":0.00100578,"INCLINATION":97.9555,"RA_OF_ASC_NODE":11.3245,"ARG_OF_PERICENTER":268.322,"MEAN_ANOMALY":91.6848,"EPHEMERIS_TYPE":0,"CLASSIFICATION_TYPE":"U","NORAD_CAT_ID":40039,"ELEMENT_SET_NO":999,"REV_AT_EPOCH":63577,"BSTAR":0.00021947731,"MEAN_MOTION_DOT":2.357e-5,"MEAN_MOTION_DDOT":0},{"OBJECT_NAME":"SATORO-T3","OBJECT_ID":"2025-135BP","EPOCH":"2026-03-09T21:54:53.647488","MEAN_MOTION":14.93899407,"ECCENTRICITY":0.00037302,"INCLINATION":97.7584,"RA_OF_ASC_NODE":184.5547,"ARG_OF_PERICENTER":312.3588,"MEAN_ANOMALY":47.7315,"EPHEMERIS_TYPE":0,"CLASSIFICATION_TYPE":"U","NORAD_CAT_ID":64589,"ELEMENT_SET_NO":999,"REV_AT_EPOCH":3908,"BSTAR":0.00028825982,"MEAN_MOTION_DOT":3.008e-5,"MEAN_MOTION_DDOT":0}]
